STARLINK-2585
1 28382C 21038AF  21325.12724736  .00008018  00000-0  53719-3 0  3252
2 28382  53.0530 197.6552 0001598  69.0243 135.1925 15.06391480    19
